     2.100          NAVIGATION                              RINEX VERSION / TYPE
fic2rin                                 11/02/2010 00:07:10 PGM / RUN BY / DATE
                                                            END OF HEADER
 1 10 11  1 10  0  0.0 -.177994836122D-03 -.363797880709D-11  .000000000000D+00
     .430000000000D+02 -.278125000000D+02  .496627829400D-08  .219724315097D+00
    -.128522515297D-05  .442551914603D-02  .427663326263D-05  .515351427460D+04
     .122400000000D+06 -.149011611938D-07  .671834985492D+00  .409781932831D-07
     .966481924412D+00  .297468750000D+03  .950683352738D+00 -.855214194533D-08
    -.635740766869D-10  .100000000000D+01  .160800000000D+04  .000000000000D+00
     .240000000000D+01  .630000000000D+02 -.190921127796D-07  .430000000000D+02
     .115206000000D+06  .400000000000D+01
 2 10 11  1 10  0  0.0  .299442559481D-03  .261479726760D-11  .000000000000D+00
     .180000000000D+02  .603750000000D+02  .490091842864D-08 -.125652007012D+01
     .316463410854D-05  .974569108803D-02  .974535942078D-05  .515365954018D+04
     .122400000000D+06 -.689178705215D-07  .275316531609D+01 -.229105353355D-06
     .939795283572D+00  .184281250000D+03 -.313677345180D+01 -.819819863074D-08
     .317513225700D-09  .100000000000D+01  .160800000000D+04  .000000000000D+00
     .240000000000D+01  .000000000000D+00 -.172294676304D-07  .180000000000D+02
     .115206000000D+06  .400000000000D+01
 3 10 11  1 10  0  0.0  .629276968539D-03  .511590769747D-11  .000000000000D+00
     .163000000000D+03 -.789062500000D+02  .530700677242D-08 -.136876158347D+01
    -.400282442570D-05  .138094596332D-01  .920519232750D-05  .515361999512D+04
     .122400000000D+06  .340864062309D-06  .159835694415D+01  .178813934326D-06
     .927465030264D+00  .181531250000D+03  .105337821965D+01 -.845428072616D-08
    -.400016662300D-09  .100000000000D+01  .160800000000D+04  .000000000000D+00
     .340000000000D+01  .000000000000D+00 -.465661287308D-08  .163000000000D+03
     .115206000000D+06  .400000000000D+01
 4 10 11  1 10  0  0.0  .208427198231D-03  .966338120634D-11  .000000000000D+00
     .410000000000D+02  .533125000000D+02  .493734851753D-08  .172311599650D+01
     .279396772385D-05  .944741896819D-02  .103171914816D-04  .515378018570D+04
     .122400000000D+06 -.191852450371D-06  .277082225747D+01  .111758708954D-07
     .938921397754D+00  .174843750000D+03  .666964130990D+00 -.832963267692D-08
     .140720147273D-09  .100000000000D+01  .160800000000D+04  .000000000000D+00
     .240000000000D+01  .000000000000D+00 -.605359673500D-08  .410000000000D+02
     .115206000000D+06  .400000000000D+01
 5 10 11  1 10  0  0.0 -.605043023825D-04 -.591171556152D-11  .000000000000D+00
     .320000000000D+02  .121250000000D+02  .484948771491D-08  .430464222677D+00
     .694766640663D-06  .199995771982D-02  .442191958427D-05  .515354925346D+04
     .122400000000D+06  .745058059692D-08 -.246962510578D+01 -.558793544769D-08
     .956598154359D+00  .289812500000D+03  .168635156171D+00 -.845320925295D-08
    -.542879755978D-10  .100000000000D+01  .160800000000D+04  .000000000000D+00
     .240000000000D+01  .000000000000D+00 -.977888703346D-08  .320000000000D+02
     .115206000000D+06  .400000000000D+01
 6 10 11  1 10  0  0.0  .435381662101D-03 -.130739863380D-10  .000000000000D+00
     .470000000000D+02 -.814062500000D+02  .514878589617D-08  .786125287811D+00
    -.445358455181D-05  .616899982560D-02  .101681798697D-04  .515365885735D+04
     .122400000000D+06  .558793544769D-07  .167030592658D+01 -.122934579849D-06
     .934730819176D+00  .170343750000D+03 -.921595899483D+00 -.847142429740D-08
    -.404302555110D-09  .100000000000D+01  .160800000000D+04  .000000000000D+00
     .240000000000D+01  .000000000000D+00 -.465661287308D-08  .470000000000D+02
     .115206000000D+06  .400000000000D+01
 7 10 11  1 10  0  0.0 -.995583832264D-06  .341060513165D-12  .000000000000D+00
     .710000000000D+02  .454375000000D+02  .426410618857D-08 -.297466603652D+01
     .249966979027D-05  .416939065326D-02  .945292413235D-05  .515368914032D+04
     .122400000000D+06 -.856816768646D-07 -.366593735746D+00 -.372529029846D-07
     .973290867414D+00  .206843750000D+03 -.314154706614D+01 -.790211486909D-08
     .391802034413D-09  .100000000000D+01  .160800000000D+04  .000000000000D+00
     .240000000000D+01  .000000000000D+00 -.102445483208D-07  .710000000000D+02
     .115206000000D+06  .400000000000D+01
 8 10 11  1 10  0  0.0  .688713043928D-05  .000000000000D+00  .000000000000D+00
     .480000000000D+02  .446875000000D+02  .380694428880D-08  .274260999349D+01
     .241398811340D-05  .115351071581D-01  .897049903870D-05  .515365643883D+04
     .122400000000D+06 -.283122062683D-06 -.295440579292D+00  .447034835815D-07
     .994820261206D+00  .226125000000D+03 -.312164445042D+01 -.765817613663D-08
     .421803284086D-09  .100000000000D+01  .160800000000D+04  .000000000000D+00
     .240000000000D+01  .000000000000D+00 -.419095158577D-08  .480000000000D+02
     .115206000000D+06  .400000000000D+01
 9 10 11  1 10  0  0.0  .398708507419D-04  .238742359215D-11  .000000000000D+00
     .400000000000D+02  .523750000000D+02  .400695261995D-08  .262137163929D+01
     .257603824139D-05  .169614662882D-01  .875070691109D-05  .515369877625D+04
     .122400000000D+06  .214204192162D-06 -.396584216147D+00 -.596046447754D-07
     .982307558607D+00  .218031250000D+03  .155343336612D+01 -.760424531877D-08
     .303941231801D-09  .100000000000D+01  .160800000000D+04  .000000000000D+00
     .240000000000D+01  .000000000000D+00 -.558793544769D-08  .400000000000D+02
     .115206000000D+06  .400000000000D+01
10 10 11  1 10  0  0.0 -.567496754229D-04 -.102318153949D-11  .000000000000D+00
     .750000000000D+02  .163750000000D+02  .501056585304D-08  .588805564561D+00
     .918284058571D-06  .954618409742D-02  .454857945442D-05  .515353264999D+04
     .122400000000D+06 -.521540641785D-07 -.244475857494D+01  .115483999252D-06
     .951571127500D+00  .286656250000D+03  .666596081282D+00 -.863107380458D-08
    -.117862052285D-09  .100000000000D+01  .160800000000D+04  .000000000000D+00
     .340000000000D+01  .000000000000D+00 -.279396772385D-08  .750000000000D+02
     .115206000000D+06  .400000000000D+01
11 10 11  1 10  0  0.0 -.100721139461D-03 -.284217094304D-11  .000000000000D+00
     .140000000000D+02  .247500000000D+02  .593596154234D-08 -.306450537768D+01
     .127591192722D-05  .113628254039D-01  .110436230898D-04  .515348073578D+04
     .122400000000D+06  .540167093277D-07  .252664449572D+01 -.171363353729D-06
     .888359044406D+00  .125500000000D+03  .872535408556D+00 -.854142721330D-08
     .170364239212D-09  .100000000000D+01  .160800000000D+04  .000000000000D+00
     .240000000000D+01  .000000000000D+00 -.116415321827D-07  .140000000000D+02
     .115206000000D+06  .400000000000D+01
12 10 11  1 10  0  0.0 -.580307096243D-04  .363797880709D-11  .000000000000D+00
     .620000000000D+02 -.290625000000D+02  .465697969618D-08 -.294051502295D+01
    -.153481960297D-05  .332510087173D-02  .476837158203D-05  .515357122421D+04
     .122400000000D+06 -.104308128357D-06  .687207613938D+00  .745058059692D-08
     .972583564078D+00  .291781250000D+03 -.319634074179D+00 -.821391357104D-08
    -.339299847486D-10  .100000000000D+01  .160800000000D+04  .000000000000D+00
     .240000000000D+01  .000000000000D+00 -.116415321827D-07  .620000000000D+02
     .115206000000D+06  .400000000000D+01
13 10 11  1 10  0  0.0  .293283257633D-03 -.102318153949D-11  .000000000000D+00
     .280000000000D+02 -.338750000000D+02  .379480092583D-08 -.517516523498D+00
    -.195950269699D-05  .429225433618D-02  .100433826447D-04  .515368857384D+04
     .122400000000D+06 -.912696123123D-07 -.134486901229D+01  .335276126862D-07
     .991398611389D+00  .206906250000D+03  .180832203912D+01 -.778282418587D-08
    -.170364239212D-09  .100000000000D+01  .160800000000D+04  .000000000000D+00
     .240000000000D+01  .000000000000D+00 -.107102096081D-07  .280000000000D+02
     .115206000000D+06  .400000000000D+01
14 10 11  1 10  0  0.0  .103277154267D-03  .341060513165D-11  .000000000000D+00
     .480000000000D+02 -.202812500000D+02  .394659296287D-08 -.559594510820D+00
    -.966712832451D-06  .573907489888D-02  .107455998659D-04  .515359343147D+04
     .122400000000D+06 -.130385160446D-07 -.136770750564D+01  .633299350739D-07
     .984554749994D+00  .187500000000D+03 -.210206258033D+01 -.789282876800D-08
    -.233224000430D-09  .100000000000D+01  .160800000000D+04  .000000000000D+00
     .240000000000D+01  .000000000000D+00 -.884756445885D-08  .480000000000D+02
     .115206000000D+06  .400000000000D+01
15 10 11  1 10  0  0.0 -.188664998859D-03  .466116034659D-11  .000000000000D+00
     .140000000000D+02 -.213125000000D+02  .469626704694D-08 -.742247905399D+00
    -.128522515297D-05  .293133314699D-02  .917539000511D-05  .515383986473D+04
     .122400000000D+06  .391155481339D-07 -.143685754688D+01 -.633299350739D-07
     .951952497077D+00  .195500000000D+03 -.203877875280D+00 -.819927010394D-08
    -.234652631367D-09  .100000000000D+01  .160800000000D+04  .000000000000D+00
     .240000000000D+01  .000000000000D+00 -.977888703346D-08  .140000000000D+02
     .115206000000D+06  .400000000000D+01
16 10 11  1 10  0  0.0 -.122322700918D-03 -.329691829393D-11  .000000000000D+00
     .320000000000D+02 -.304062500000D+02  .474269755239D-08  .100032333038D+01
    -.149756669998D-05  .585236202460D-02  .424496829510D-05  .515367890930D+04
     .122400000000D+06  .707805156708D-07  .704819516459D+00  .670552253723D-07
     .973700161171D+00  .299781250000D+03 -.159081954402D+00 -.838249202158D-08
    -.122147945095D-09  .100000000000D+01  .160800000000D+04  .000000000000D+00
     .240000000000D+01  .000000000000D+00 -.977888703346D-08  .320000000000D+02
     .115206000000D+06  .400000000000D+01
